{
 "generated_at": "2026-07-13T08:17:10Z",
 "sources": [
  {
   "name": "CelesTrak",
   "url": "https://celestrak.org/NORAD/elements/",
   "license": "frei verfügbar; Attribution. Ursprünglich USSPACECOM/Space-Track."
  },
  {
   "name": "GCAT (J. McDowell, planet4589.org)",
   "url": "https://planet4589.org/space/gcat/",
   "license": "CC-BY 4.0"
  }
 ],
 "satellites": [
  {
   "norad": 58648,
   "name": "TIANMU-1 14",
   "intl": "2023-205D",
   "group": "weather",
   "gcat": {
    "class": "B",
    "category": "MET",
    "owner": "TIANMU",
    "state": "CN"
   },
   "omm": {
    "OBJECT_NAME": "TIANMU-1 14",
    "OBJECT_ID": "2023-205D",
    "EPOCH": "2026-07-12T20:38:46.360320",
    "MEAN_MOTION": 15.27117904,
    "ECCENTRICITY": 0.0006226,
    "INCLINATION": 97.3394,
    "RA_OF_ASC_NODE": 214.2061,
    "ARG_OF_PERICENTER": 230.0096,
    "MEAN_ANOMALY": 130.0597,
    "EPHEMERIS_TYPE": 0,
    "CLASSIFICATION_TYPE": "U",
    "NORAD_CAT_ID": 58648,
    "ELEMENT_SET_NO": 999,
    "REV_AT_EPOCH": 14142,
    "BSTAR": 0.00013821,
    "MEAN_MOTION_DOT": 0.00003604,
    "MEAN_MOTION_DDOT": 0
   }
  },
  {
   "norad": 58700,
   "name": "TIANMU-1 15",
   "intl": "2024-004A",
   "group": "weather",
   "gcat": {
    "class": "B",
    "category": "MET",
    "owner": "TIANMU",
    "state": "CN"
   },
   "omm": {
    "OBJECT_NAME": "TIANMU-1 15",
    "OBJECT_ID": "2024-004A",
    "EPOCH": "2026-07-12T20:29:07.990080",
    "MEAN_MOTION": 15.26899404,
    "ECCENTRICITY": 0.0005891,
    "INCLINATION": 97.4667,
    "RA_OF_ASC_NODE": 20.0443,
    "ARG_OF_PERICENTER": 238.6454,
    "MEAN_ANOMALY": 121.4208,
    "EPHEMERIS_TYPE": 0,
    "CLASSIFICATION_TYPE": "U",
    "NORAD_CAT_ID": 58700,
    "ELEMENT_SET_NO": 999,
    "REV_AT_EPOCH": 13969,
    "BSTAR": 0.00012585,
    "MEAN_MOTION_DOT": 0.00003251,
    "MEAN_MOTION_DDOT": 0
   }
  },
  {
   "norad": 58701,
   "name": "TIANMU-1 16",
   "intl": "2024-004B",
   "group": "weather",
   "gcat": {
    "class": "B",
    "category": "MET",
    "owner": "TIANMU",
    "state": "CN"
   },
   "omm": {
    "OBJECT_NAME": "TIANMU-1 16",
    "OBJECT_ID": "2024-004B",
    "EPOCH": "2026-07-12T20:14:11.565888",
    "MEAN_MOTION": 15.27002685,
    "ECCENTRICITY": 0.0004357,
    "INCLINATION": 97.4614,
    "RA_OF_ASC_NODE": 19.2518,
    "ARG_OF_PERICENTER": 256.7388,
    "MEAN_ANOMALY": 103.3365,
    "EPHEMERIS_TYPE": 0,
    "CLASSIFICATION_TYPE": "U",
    "NORAD_CAT_ID": 58701,
    "ELEMENT_SET_NO": 999,
    "REV_AT_EPOCH": 13969,
    "BSTAR": 0.00012797,
    "MEAN_MOTION_DOT": 0.00003317,
    "MEAN_MOTION_DDOT": 0
   }
  },
  {
   "norad": 58702,
   "name": "TIANMU-1 17",
   "intl": "2024-004C",
   "group": "weather",
   "gcat": {
    "class": "B",
    "category": "MET",
    "owner": "TIANMU",
    "state": "CN"
   },
   "omm": {
    "OBJECT_NAME": "TIANMU-1 17",
    "OBJECT_ID": "2024-004C",
    "EPOCH": "2026-07-12T19:53:16.959264",
    "MEAN_MOTION": 15.2700082,
    "ECCENTRICITY": 0.0003854,
    "INCLINATION": 97.4641,
    "RA_OF_ASC_NODE": 19.7316,
    "ARG_OF_PERICENTER": 263.8544,
    "MEAN_ANOMALY": 96.2256,
    "EPHEMERIS_TYPE": 0,
    "CLASSIFICATION_TYPE": "U",
    "NORAD_CAT_ID": 58702,
    "ELEMENT_SET_NO": 999,
    "REV_AT_EPOCH": 13968,
    "BSTAR": 0.00013423,
    "MEAN_MOTION_DOT": 0.00003482,
    "MEAN_MOTION_DDOT": 0
   }
  },
  {
   "norad": 58703,
   "name": "TIANMU-1 18",
   "intl": "2024-004D",
   "group": "weather",
   "gcat": {
    "class": "B",
    "category": "MET",
    "owner": "TIANMU",
    "state": "CN"
   },
   "omm": {
    "OBJECT_NAME": "TIANMU-1 18",
    "OBJECT_ID": "2024-004D",
    "EPOCH": "2026-07-12T20:53:01.665888",
    "MEAN_MOTION": 15.26916669,
    "ECCENTRICITY": 0.0003602,
    "INCLINATION": 97.4659,
    "RA_OF_ASC_NODE": 20.0356,
    "ARG_OF_PERICENTER": 235.727,
    "MEAN_ANOMALY": 124.3627,
    "EPHEMERIS_TYPE": 0,
    "CLASSIFICATION_TYPE": "U",
    "NORAD_CAT_ID": 58703,
    "ELEMENT_SET_NO": 999,
    "REV_AT_EPOCH": 13969,
    "BSTAR": 0.00012614,
    "MEAN_MOTION_DOT": 0.00003259,
    "MEAN_MOTION_DDOT": 0
   }
  },
  {
   "norad": 58660,
   "name": "TIANMU-1 19",
   "intl": "2023-208A",
   "group": "weather",
   "gcat": {
    "class": "B",
    "category": "MET",
    "owner": "TIANMU",
    "state": "CN"
   },
   "omm": {
    "OBJECT_NAME": "TIANMU-1 19",
    "OBJECT_ID": "2023-208A",
    "EPOCH": "2026-07-12T19:54:30.451104",
    "MEAN_MOTION": 15.31953857,
    "ECCENTRICITY": 0.0004356,
    "INCLINATION": 97.4523,
    "RA_OF_ASC_NODE": 310.2692,
    "ARG_OF_PERICENTER": 207.3583,
    "MEAN_ANOMALY": 152.743,
    "EPHEMERIS_TYPE": 0,
    "CLASSIFICATION_TYPE": "U",
    "NORAD_CAT_ID": 58660,
    "ELEMENT_SET_NO": 999,
    "REV_AT_EPOCH": 14125,
    "BSTAR": 0.00017204,
    "MEAN_MOTION_DOT": 0.00005229,
    "MEAN_MOTION_DDOT": 0
   }
  },
  {
   "norad": 58661,
   "name": "TIANMU-1 20",
   "intl": "2023-208B",
   "group": "weather",
   "gcat": {
    "class": "B",
    "category": "MET",
    "owner": "TIANMU",
    "state": "CN"
   },
   "omm": {
    "OBJECT_NAME": "TIANMU-1 20",
    "OBJECT_ID": "2023-208B",
    "EPOCH": "2026-07-12T20:20:17.602944",
    "MEAN_MOTION": 15.33143306,
    "ECCENTRICITY": 0.000612,
    "INCLINATION": 97.4465,
    "RA_OF_ASC_NODE": 310.9492,
    "ARG_OF_PERICENTER": 221.4227,
    "MEAN_ANOMALY": 138.6552,
    "EPHEMERIS_TYPE": 0,
    "CLASSIFICATION_TYPE": "U",
    "NORAD_CAT_ID": 58661,
    "ELEMENT_SET_NO": 999,
    "REV_AT_EPOCH": 14135,
    "BSTAR": 0.00017184,
    "MEAN_MOTION_DOT": 0.00005424,
    "MEAN_MOTION_DDOT": 0
   }
  },
  {
   "norad": 58662,
   "name": "TIANMU-1 21",
   "intl": "2023-208C",
   "group": "weather",
   "gcat": {
    "class": "B",
    "category": "MET",
    "owner": "TIANMU",
    "state": "CN"
   },
   "omm": {
    "OBJECT_NAME": "TIANMU-1 21",
    "OBJECT_ID": "2023-208C",
    "EPOCH": "2026-07-12T20:40:54.344640",
    "MEAN_MOTION": 15.35526109,
    "ECCENTRICITY": 0.0006478,
    "INCLINATION": 97.4524,
    "RA_OF_ASC_NODE": 313.7568,
    "ARG_OF_PERICENTER": 213.0931,
    "MEAN_ANOMALY": 146.9908,
    "EPHEMERIS_TYPE": 0,
    "CLASSIFICATION_TYPE": "U",
    "NORAD_CAT_ID": 58662,
    "ELEMENT_SET_NO": 999,
    "REV_AT_EPOCH": 14150,
    "BSTAR": 0.00018812,
    "MEAN_MOTION_DOT": 0.00006416,
    "MEAN_MOTION_DDOT": 0
   }
  },
  {
   "norad": 58663,
   "name": "TIANMU-1 22",
   "intl": "2023-208D",
   "group": "weather",
   "gcat": {
    "class": "B",
    "category": "MET",
    "owner": "TIANMU",
    "state": "CN"
   },
   "omm": {
    "OBJECT_NAME": "TIANMU-1 22",
    "OBJECT_ID": "2023-208D",
    "EPOCH": "2026-07-12T19:41:05.545248",
    "MEAN_MOTION": 15.31407119,
    "ECCENTRICITY": 0.0002557,
    "INCLINATION": 97.452,
    "RA_OF_ASC_NODE": 310.1737,
    "ARG_OF_PERICENTER": 229.628,
    "MEAN_ANOMALY": 130.4739,
    "EPHEMERIS_TYPE": 0,
    "CLASSIFICATION_TYPE": "U",
    "NORAD_CAT_ID": 58663,
    "ELEMENT_SET_NO": 999,
    "REV_AT_EPOCH": 14125,
    "BSTAR": 0.0001585,
    "MEAN_MOTION_DOT": 0.00004728,
    "MEAN_MOTION_DDOT": 0
   }
  },
  {
   "norad": 58297,
   "name": "UMBRA-07",
   "intl": "2023-174AT",
   "group": "sar",
   "gcat": {
    "class": "B",
    "category": "IMG-R",
    "owner": "UMBRA",
    "state": "US"
   },
   "omm": {
    "OBJECT_NAME": "UMBRA-07",
    "OBJECT_ID": "2023-174AT",
    "EPOCH": "2026-07-12T16:41:28.652064",
    "MEAN_MOTION": 15.09593405,
    "ECCENTRICITY": 0.0002494,
    "INCLINATION": 97.379,
    "RA_OF_ASC_NODE": 248.497,
    "ARG_OF_PERICENTER": 22.7929,
    "MEAN_ANOMALY": 337.3411,
    "EPHEMERIS_TYPE": 0,
    "CLASSIFICATION_TYPE": "U",
    "NORAD_CAT_ID": 58297,
    "ELEMENT_SET_NO": 999,
    "REV_AT_EPOCH": 14726,
    "BSTAR": 0.00037916,
    "MEAN_MOTION_DOT": 0.00006033,
    "MEAN_MOTION_DDOT": 0
   }
  }
 ]
}
